[{"OBJECT_NAME":"STARLINK-11180 [DTC]","OBJECT_ID":"2024-124C","EPOCH":"2025-12-03T02:00:26.165952","MEAN_MOTION":15.69712478,"ECCENTRICITY":0.0001246,"INCLINATION":53.1582,"RA_OF_ASC_NODE":277.2945,"ARG_OF_PERICENTER":97.334,"MEAN_ANOMALY":262.7819,"EPHEMERIS_TYPE":0,"CLASSIFICATION_TYPE":"U","NORAD_CAT_ID":60185,"ELEMENT_SET_NO":999,"REV_AT_EPOCH":8136,"BSTAR":0.00010406235,"MEAN_MOTION_DOT":0.00012038,"MEAN_MOTION_DDOT":0},{"OBJECT_NAME":"STARLINK-11197 [DTC]","OBJECT_ID":"2024-124D","EPOCH":"2025-12-03T03:25:03.563904","MEAN_MOTION":15.69707851,"ECCENTRICITY":0.00013579,"INCLINATION":53.1599,"RA_OF_ASC_NODE":276.9479,"ARG_OF_PERICENTER":77.9412,"MEAN_ANOMALY":282.1758,"EPHEMERIS_TYPE":0,"CLASSIFICATION_TYPE":"U","NORAD_CAT_ID":60186,"ELEMENT_SET_NO":999,"REV_AT_EPOCH":8137,"BSTAR":-7.406913e-6,"MEAN_MOTION_DOT":-1.486e-5,"MEAN_MOTION_DDOT":0},{"OBJECT_NAME":"STARLINK-11194 [DTC]","OBJECT_ID":"2024-124E","EPOCH":"2025-12-03T04:49:41.623680","MEAN_MOTION":15.69605712,"ECCENTRICITY":0.00028294,"INCLINATION":53.1589,"RA_OF_ASC_NODE":276.6018,"ARG_OF_PERICENTER":134.822,"MEAN_ANOMALY":225.3029,"EPHEMERIS_TYPE":0,"CLASSIFICATION_TYPE":"U","NORAD_CAT_ID":60187,"ELEMENT_SET_NO":999,"REV_AT_EPOCH":8138,"BSTAR":0.00017909467,"MEAN_MOTION_DOT":0.00021071,"MEAN_MOTION_DDOT":0},{"OBJECT_NAME":"STARLINK-11189 [DTC]","OBJECT_ID":"2024-124F","EPOCH":"2025-12-03T03:11:04.534368","MEAN_MOTION":15.69705402,"ECCENTRICITY":9.409e-5,"INCLINATION":53.1582,"RA_OF_ASC_NODE":277.6216,"ARG_OF_PERICENTER":98.9175,"MEAN_ANOMALY":261.1949,"EPHEMERIS_TYPE":0,"CLASSIFICATION_TYPE":"U","NORAD_CAT_ID":60188,"ELEMENT_SET_NO":999,"REV_AT_EPOCH":8136,"BSTAR":1.656609e-6,"MEAN_MOTION_DOT":-3.88e-6,"MEAN_MOTION_DDOT":0},{"OBJECT_NAME":"STARLINK-11183 [DTC]","OBJECT_ID":"2024-124G","EPOCH":"2025-12-03T03:04:00.783840","MEAN_MOTION":15.69706641,"ECCENTRICITY":0.0001168,"INCLINATION":53.1596,"RA_OF_ASC_NODE":277.5859,"ARG_OF_PERICENTER":86.9957,"MEAN_ANOMALY":273.1194,"EPHEMERIS_TYPE":0,"CLASSIFICATION_TYPE":"U","NORAD_CAT_ID":60189,"ELEMENT_SET_NO":999,"REV_AT_EPOCH":8136,"BSTAR":1.384812e-5,"MEAN_MOTION_DOT":1.089e-5,"MEAN_MOTION_DDOT":0},{"OBJECT_NAME":"STARLINK-11179 [DTC]","OBJECT_ID":"2024-124H","EPOCH":"2025-12-03T06:00:18.534528","MEAN_MOTION":15.69720935,"ECCENTRICITY":0.00015064,"INCLINATION":53.1586,"RA_OF_ASC_NODE":276.9237,"ARG_OF_PERICENTER":99.7452,"MEAN_ANOMALY":260.3736,"EPHEMERIS_TYPE":0,"CLASSIFICATION_TYPE":"U","NORAD_CAT_ID":60190,"ELEMENT_SET_NO":999,"REV_AT_EPOCH":8138,"BSTAR":4.0490123e-5,"MEAN_MOTION_DOT":4.321e-5,"MEAN_MOTION_DDOT":0},{"OBJECT_NAME":"STARLINK-11175 [DTC]","OBJECT_ID":"2024-124J","EPOCH":"2025-12-03T05:53:14.481600","MEAN_MOTION":15.69716787,"ECCENTRICITY":0.00012567,"INCLINATION":53.1596,"RA_OF_ASC_NODE":276.891,"ARG_OF_PERICENTER":93.879,"MEAN_ANOMALY":266.2371,"EPHEMERIS_TYPE":0,"CLASSIFICATION_TYPE":"U","NORAD_CAT_ID":60191,"ELEMENT_SET_NO":999,"REV_AT_EPOCH":8138,"BSTAR":2.507561e-6,"MEAN_MOTION_DOT":-2.85e-6,"MEAN_MOTION_DDOT":0},{"OBJECT_NAME":"STARLINK-11173 [DTC]","OBJECT_ID":"2024-124K","EPOCH":"2025-12-03T05:46:10.940160","MEAN_MOTION":15.69711263,"ECCENTRICITY":0.00012815,"INCLINATION":53.1593,"RA_OF_ASC_NODE":276.8576,"ARG_OF_PERICENTER":89.4172,"MEAN_ANOMALY":270.6993,"EPHEMERIS_TYPE":0,"CLASSIFICATION_TYPE":"U","NORAD_CAT_ID":60192,"ELEMENT_SET_NO":999,"REV_AT_EPOCH":8138,"BSTAR":1.6758707e-5,"MEAN_MOTION_DOT":1.442e-5,"MEAN_MOTION_DDOT":0},{"OBJECT_NAME":"STARLINK-11172 [DTC]","OBJECT_ID":"2024-124L","EPOCH":"2025-12-03T02:35:45.141504","MEAN_MOTION":15.69725501,"ECCENTRICITY":0.00011667,"INCLINATION":53.1579,"RA_OF_ASC_NODE":277.453,"ARG_OF_PERICENTER":96.1369,"MEAN_ANOMALY":263.9782,"EPHEMERIS_TYPE":0,"CLASSIFICATION_TYPE":"U","NORAD_CAT_ID":60193,"ELEMENT_SET_NO":999,"REV_AT_EPOCH":8136,"BSTAR":0.0002287848,"MEAN_MOTION_DOT":0.00027237,"MEAN_MOTION_DDOT":0},{"OBJECT_NAME":"STARLINK-11152 [DTC]","OBJECT_ID":"2024-124M","EPOCH":"2025-12-03T05:32:03.255936","MEAN_MOTION":15.69712807,"ECCENTRICITY":0.00013294,"INCLINATION":53.1592,"RA_OF_ASC_NODE":276.7911,"ARG_OF_PERICENTER":102.3581,"MEAN_ANOMALY":257.7585,"EPHEMERIS_TYPE":0,"CLASSIFICATION_TYPE":"U","NORAD_CAT_ID":60194,"ELEMENT_SET_NO":999,"REV_AT_EPOCH":8257,"BSTAR":5.662439e-6,"MEAN_MOTION_DOT":9.7e-7,"MEAN_MOTION_DDOT":0},{"OBJECT_NAME":"STARLINK-11193 [DTC]","OBJECT_ID":"2024-124N","EPOCH":"2025-12-03T05:24:59.635008","MEAN_MOTION":15.69713177,"ECCENTRICITY":0.00037411,"INCLINATION":53.1595,"RA_OF_ASC_NODE":276.7603,"ARG_OF_PERICENTER":77.4055,"MEAN_ANOMALY":282.7381,"EPHEMERIS_TYPE":0,"CLASSIFICATION_TYPE":"U","NORAD_CAT_ID":60195,"ELEMENT_SET_NO":999,"REV_AT_EPOCH":8138,"BSTAR":1.5098754e-5,"MEAN_MOTION_DOT":1.237e-5,"MEAN_MOTION_DDOT":0},{"OBJECT_NAME":"STARLINK-31869","OBJECT_ID":"2024-124P","EPOCH":"2025-12-03T06:19:43.259232","MEAN_MOTION":15.30201789,"ECCENTRICITY":0.00012364,"INCLINATION":53.1616,"RA_OF_ASC_NODE":50.3019,"ARG_OF_PERICENTER":87.3787,"MEAN_ANOMALY":272.7355,"EPHEMERIS_TYPE":0,"CLASSIFICATION_TYPE":"U","NORAD_CAT_ID":60196,"ELEMENT_SET_NO":999,"REV_AT_EPOCH":7953,"BSTAR":5.7454354e-5,"MEAN_MOTION_DOT":1.343e-5,"MEAN_MOTION_DDOT":0},{"OBJECT_NAME":"STARLINK-32023","OBJECT_ID":"2024-124Q","EPOCH":"2025-12-03T05:35:49.502976","MEAN_MOTION":15.30197113,"ECCENTRICITY":0.00011043,"INCLINATION":53.1612,"RA_OF_ASC_NODE":50.8216,"ARG_OF_PERICENTER":72.0376,"MEAN_ANOMALY":288.0745,"EPHEMERIS_TYPE":0,"CLASSIFICATION_TYPE":"U","NORAD_CAT_ID":60197,"ELEMENT_SET_NO":999,"REV_AT_EPOCH":7952,"BSTAR":1.6494352e-5,"MEAN_MOTION_DOT":1.29e-6,"MEAN_MOTION_DDOT":0},{"OBJECT_NAME":"STARLINK-32046","OBJECT_ID":"2024-124R","EPOCH":"2025-12-03T05:02:23.911008","MEAN_MOTION":15.30194445,"ECCENTRICITY":0.00011722,"INCLINATION":53.1608,"RA_OF_ASC_NODE":50.6754,"ARG_OF_PERICENTER":79.1553,"MEAN_ANOMALY":280.958,"EPHEMERIS_TYPE":0,"CLASSIFICATION_TYPE":"U","NORAD_CAT_ID":60198,"ELEMENT_SET_NO":999,"REV_AT_EPOCH":8075,"BSTAR":0.00024457853,"MEAN_MOTION_DOT":6.89e-5,"MEAN_MOTION_DDOT":0},{"OBJECT_NAME":"STARLINK-32049","OBJECT_ID":"2024-124S","EPOCH":"2025-12-03T08:30:14.183712","MEAN_MOTION":15.30241884,"ECCENTRICITY":9.505e-5,"INCLINATION":53.1618,"RA_OF_ASC_NODE":50.1565,"ARG_OF_PERICENTER":75.128,"MEAN_ANOMALY":284.9826,"EPHEMERIS_TYPE":0,"CLASSIFICATION_TYPE":"U","NORAD_CAT_ID":60199,"ELEMENT_SET_NO":999,"REV_AT_EPOCH":8077,"BSTAR":-0.00031274219,"MEAN_MOTION_DOT":-9.622e-5,"MEAN_MOTION_DDOT":0},{"OBJECT_NAME":"STARLINK-32002","OBJECT_ID":"2024-124T","EPOCH":"2025-12-02T11:49:19.677504","MEAN_MOTION":15.30195669,"ECCENTRICITY":0.00013422,"INCLINATION":53.1603,"RA_OF_ASC_NODE":54.0224,"ARG_OF_PERICENTER":77.364,"MEAN_ANOMALY":282.7511,"EPHEMERIS_TYPE":0,"CLASSIFICATION_TYPE":"U","NORAD_CAT_ID":60200,"ELEMENT_SET_NO":999,"REV_AT_EPOCH":7941,"BSTAR":5.7746991e-5,"MEAN_MOTION_DOT":1.351e-5,"MEAN_MOTION_DDOT":0}]
