STARLINK-11180 [DTC]    
1 60185U 24124C   25337.08363618  .00012038  00000+0  10406-3 0  9995
2 60185  53.1582 277.2945 0001246  97.3340 262.7819 15.69712478 81364
STARLINK-11197 [DTC]    
1 60186U 24124D   25337.14240236 -.00001486  00000+0 -74069-5 0  9997
2 60186  53.1599 276.9479 0001357  77.9412 282.1758 15.69707851 81376
STARLINK-11194 [DTC]    
1 60187U 24124E   25337.20117620  .00021071  00000+0  17909-3 0  9993
2 60187  53.1589 276.6018 0002829 134.8220 225.3029 15.69605712 81381
STARLINK-11189 [DTC]    
1 60188U 24124F   25337.13269137 -.00000388  00000+0  16566-5 0  9996
2 60188  53.1582 277.6216 0000940  98.9175 261.1949 15.69705402 81361
STARLINK-11183 [DTC]    
1 60189U 24124G   25337.12778685  .00001089  00000+0  13848-4 0  9996
2 60189  53.1596 277.5859 0001168  86.9957 273.1194 15.69706641 81368
STARLINK-11179 [DTC]    
1 60190U 24124H   25337.25021452  .00004321  00000+0  40490-4 0  9990
2 60190  53.1586 276.9237 0001506  99.7452 260.3736 15.69720935 81384
STARLINK-11175 [DTC]    
1 60191U 24124J   25337.24530650 -.00000285  00000+0  25076-5 0  9995
2 60191  53.1596 276.8910 0001256  93.8790 266.2371 15.69716787 81385
STARLINK-11173 [DTC]    
1 60192U 24124K   25337.24040440  .00001442  00000+0  16759-4 0  9991
2 60192  53.1593 276.8576 0001281  89.4172 270.6993 15.69711263 81387
STARLINK-11172 [DTC]    
1 60193U 24124L   25337.10816136  .00027237  00000+0  22878-3 0  9998
2 60193  53.1579 277.4530 0001166  96.1369 263.9782 15.69725501 81363
STARLINK-11152 [DTC]    
1 60194U 24124M   25337.23059324  .00000097  00000+0  56624-5 0  9994
2 60194  53.1592 276.7911 0001329 102.3581 257.7585 15.69712807 82572
STARLINK-11193 [DTC]    
1 60195U 24124N   25337.22569022  .00001237  00000+0  15099-4 0  9992
2 60195  53.1595 276.7603 0003741  77.4055 282.7381 15.69713177 81383
STARLINK-31869          
1 60196U 24124P   25337.26369513  .00001343  00000+0  57454-4 0  9999
2 60196  53.1616  50.3019 0001236  87.3787 272.7355 15.30201789 79537
STARLINK-32023          
1 60197U 24124Q   25337.23321184  .00000129  00000+0  16494-4 0  9999
2 60197  53.1612  50.8216 0001104  72.0376 288.0745 15.30197113 79524
STARLINK-32046          
1 60198U 24124R   25337.20999897  .00006890  00000+0  24458-3 0  9998
2 60198  53.1608  50.6754 0001172  79.1553 280.9580 15.30194445 80755
STARLINK-32049          
1 60199U 24124S   25337.35433083 -.00009622  00000+0 -31274-3 0  9997
2 60199  53.1618  50.1565 0000950  75.1280 284.9826 15.30241884 80777
STARLINK-32002          
1 60200U 24124T   25336.49258886  .00001351  00000+0  57747-4 0  9993
2 60200  53.1603  54.0224 0001342  77.3640 282.7511 15.30195669 79414
